{
  "norad_id": 22826,
  "name": "ITAMSAT (IO-26)",
  "history": [
    {
      "epoch": "2026-04-13T02:36:44.751456Z",
      "apogee_km": 792.7644546691381,
      "perigee_km": 781.6799306124904,
      "latitude_deg": -4.82762104030295e-06,
      "longitude_deg": -70.04652160044866,
      "height_km": 789.6539377116309,
      "semi_major_axis_km": 7165.3591926408135,
      "eccentricity": 0.00077348,
      "inclination_deg": 98.6869,
      "raan_deg": 170.4443,
      "arg_perigee_deg": 275.2382,
      "mean_anomaly_deg": 84.7918,
      "mean_motion_rev_day": 14.31349903
    },
    {
      "epoch": "2026-04-14T03:46:40.265472Z",
      "apogee_km": 792.7613204030604,
      "perigee_km": 781.6816698692019,
      "latitude_deg": -1.8296926975045483e-05,
      "longitude_deg": -87.51253428900647,
      "height_km": 789.9931031291668,
      "semi_major_axis_km": 7165.358495136131,
      "eccentricity": 0.00077314,
      "inclination_deg": 98.6867,
      "raan_deg": 171.4931,
      "arg_perigee_deg": 271.7193,
      "mean_anomaly_deg": 88.3104,
      "mean_motion_rev_day": 14.31350112
    },
    {
      "epoch": "2026-04-15T03:15:56.067840Z",
      "apogee_km": 792.7634784826287,
      "perigee_km": 781.6780967565583,
      "latitude_deg": 2.7813393209317167e-05,
      "longitude_deg": -79.81418945591325,
      "height_km": 790.3139321250338,
      "semi_major_axis_km": 7165.357787619593,
      "eccentricity": 0.00077354,
      "inclination_deg": 98.6865,
      "raan_deg": 172.4719,
      "arg_perigee_deg": 268.3949,
      "mean_anomaly_deg": 91.6348,
      "mean_motion_rev_day": 14.31350324
    },
    {
      "epoch": "2026-04-16T11:08:30.361056Z",
      "apogee_km": 792.7665659238637,
      "perigee_km": 781.6731604282941,
      "latitude_deg": 1.8980473429530938e-05,
      "longitude_deg": 162.06221738265256,
      "height_km": 790.7468934826342,
      "semi_major_axis_km": 7165.356863176078,
      "eccentricity": 0.0007741,
      "inclination_deg": 98.6863,
      "raan_deg": 173.8003,
      "arg_perigee_deg": 263.9037,
      "mean_anomaly_deg": 96.1264,
      "mean_motion_rev_day": 14.31350601
    },
    {
      "epoch": "2026-04-17T22:22:24.041280Z",
      "apogee_km": 792.7792962256681,
      "perigee_km": 781.6582341567455,
      "latitude_deg": 7.484855349570307e-05,
      "longitude_deg": -6.389966103533316,
      "height_km": 791.2260991380964,
      "semi_major_axis_km": 7165.355765191207,
      "eccentricity": 0.00077603,
      "inclination_deg": 98.6862,
      "raan_deg": 175.2687,
      "arg_perigee_deg": 258.9129,
      "mean_anomaly_deg": 101.1182,
      "mean_motion_rev_day": 14.3135093
    },
    {
      "epoch": "2026-04-18T10:07:01.929504Z",
      "apogee_km": 792.782456557271,
      "perigee_km": 781.6543729839159,
      "latitude_deg": 0.00010190155733359744,
      "longitude_deg": 177.4593591565763,
      "height_km": 791.3823027753405,
      "semi_major_axis_km": 7165.355414770593,
      "eccentricity": 0.00077652,
      "inclination_deg": 98.6863,
      "raan_deg": 175.7582,
      "arg_perigee_deg": 257.2725,
      "mean_anomaly_deg": 102.7591,
      "mean_motion_rev_day": 14.31351035
    },
    {
      "epoch": "2026-04-19T02:53:38.906880Z",
      "apogee_km": 792.7937698984479,
      "perigee_km": 781.6418982488904,
      "latitude_deg": 1.713365948939214e-05,
      "longitude_deg": -74.18460488561513,
      "height_km": 791.6037437740024,
      "semi_major_axis_km": 7165.354834073669,
      "eccentricity": 0.00077818,
      "inclination_deg": 98.6861,
      "raan_deg": 176.4573,
      "arg_perigee_deg": 254.9503,
      "mean_anomaly_deg": 105.0819,
      "mean_motion_rev_day": 14.31351209
    },
    {
      "epoch": "2026-04-20T10:46:13.157760Z",
      "apogee_km": 792.8085487065655,
      "perigee_km": 781.62543742251,
      "latitude_deg": 8.537421774911874e-05,
      "longitude_deg": 167.69186241814145,
      "height_km": 792.0223219497456,
      "semi_major_axis_km": 7165.3539930645375,
      "eccentricity": 0.00078036,
      "inclination_deg": 98.6859,
      "raan_deg": 177.7856,
      "arg_perigee_deg": 250.4921,
      "mean_anomaly_deg": 109.542,
      "mean_motion_rev_day": 14.31351461
    },
    {
      "epoch": "2026-04-21T15:17:27.987072Z",
      "apogee_km": 792.8320920000269,
      "perigee_km": 781.5996848121622,
      "latitude_deg": 4.68169295294227e-05,
      "longitude_deg": 99.89736953291457,
      "height_km": 792.3950263038661,
      "semi_major_axis_km": 7165.352888406094,
      "eccentricity": 0.0007838,
      "inclination_deg": 98.6858,
      "raan_deg": 178.9742,
      "arg_perigee_deg": 246.4825,
      "mean_anomaly_deg": 113.5535,
      "mean_motion_rev_day": 14.31351792
    },
    {
      "epoch": "2026-04-22T09:44:44.632032Z",
      "apogee_km": 792.850415533082,
      "perigee_km": 781.580033019517,
      "latitude_deg": 7.985879388543968e-05,
      "longitude_deg": -176.91089588498807,
      "height_km": 792.6244367683124,
      "semi_major_axis_km": 7165.352224276299,
      "eccentricity": 0.00078645,
      "inclination_deg": 98.6857,
      "raan_deg": 179.7432,
      "arg_perigee_deg": 243.9909,
      "mean_anomaly_deg": 116.0465,
      "mean_motion_rev_day": 14.31351991
    },
    {
      "epoch": "2026-04-23T04:12:01.273536Z",
      "apogee_km": 792.8649848460045,
      "perigee_km": 781.5642222180095,
      "latitude_deg": -4.938281456271568e-05,
      "longitude_deg": -93.71902202115554,
      "height_km": 792.8540615240124,
      "semi_major_axis_km": 7165.351603532006,
      "eccentricity": 0.00078857,
      "inclination_deg": 98.6857,
      "raan_deg": 180.5123,
      "arg_perigee_deg": 241.4395,
      "mean_anomaly_deg": 118.5994,
      "mean_motion_rev_day": 14.31352177
    },
    {
      "epoch": "2026-04-24T18:47:14.227584Z",
      "apogee_km": 792.9010601820519,
      "perigee_km": 781.5253501962934,
      "latitude_deg": 4.806450138606204e-05,
      "longitude_deg": 47.500176825915275,
      "height_km": 793.3260367965372,
      "semi_major_axis_km": 7165.350205189172,
      "eccentricity": 0.0007938,
      "inclination_deg": 98.6855,
      "raan_deg": 182.1202,
      "arg_perigee_deg": 236.0703,
      "mean_anomaly_deg": 123.9726,
      "mean_motion_rev_day": 14.31352596
    },
    {
      "epoch": "2026-04-25T18:16:29.919360Z",
      "apogee_km": 792.926453079891,
      "perigee_km": 781.4977212858348,
      "latitude_deg": 1.733569973254587e-05,
      "longitude_deg": 55.19889361420114,
      "height_km": 793.6003193160636,
      "semi_major_axis_km": 7165.349087182863,
      "eccentricity": 0.0007975,
      "inclination_deg": 98.6853,
      "raan_deg": 183.0989,
      "arg_perigee_deg": 232.8581,
      "mean_anomaly_deg": 127.1874,
      "mean_motion_rev_day": 14.31352931
    },
    {
      "epoch": "2026-04-26T17:45:45.593856Z",
      "apogee_km": 792.9519585903736,
      "perigee_km": 781.4693456708801,
      "latitude_deg": -5.462863903731991e-05,
      "longitude_deg": 62.897689502008824,
      "height_km": 793.8652649605754,
      "semi_major_axis_km": 7165.347652130627,
      "eccentricity": 0.00080126,
      "inclination_deg": 98.6852,
      "raan_deg": 184.0776,
      "arg_perigee_deg": 229.6564,
      "mean_anomaly_deg": 130.3919,
      "mean_motion_rev_day": 14.31353361
    },
    {
      "epoch": "2026-04-27T17:15:01.264032Z",
      "apogee_km": 792.9794151762453,
      "perigee_km": 781.4403405641233,
      "latitude_deg": 2.5089145490913723e-05,
      "longitude_deg": 70.59648072950506,
      "height_km": 794.1232430719496,
      "semi_major_axis_km": 7165.346877870184,
      "eccentricity": 0.0008052,
      "inclination_deg": 98.6851,
      "raan_deg": 185.0563,
      "arg_perigee_deg": 226.4434,
      "mean_anomaly_deg": 133.6081,
      "mean_motion_rev_day": 14.31353593
    },
    {
      "epoch": "2026-04-28T18:24:56.581920Z",
      "apogee_km": 793.0160421412993,
      "perigee_km": 781.4010170378342,
      "latitude_deg": 5.211107405751859e-05,
      "longitude_deg": 53.13108133776918,
      "height_km": 794.3842268413798,
      "semi_major_axis_km": 7165.3455295895665,
      "eccentricity": 0.0008105,
      "inclination_deg": 98.685,
      "raan_deg": 186.1049,
      "arg_perigee_deg": 223.1337,
      "mean_anomaly_deg": 136.9212,
      "mean_motion_rev_day": 14.31353997
    },
    {
      "epoch": "2026-04-29T17:54:12.219264Z",
      "apogee_km": 793.0472875221858,
      "perigee_km": 781.3677759354669,
      "latitude_deg": 6.87230473351954e-05,
      "longitude_deg": 60.82991894869688,
      "height_km": 794.6137204110627,
      "semi_major_axis_km": 7165.344531728826,
      "eccentricity": 0.000815,
      "inclination_deg": 98.6848,
      "raan_deg": 187.0835,
      "arg_perigee_deg": 220.0728,
      "mean_anomaly_deg": 139.9855,
      "mean_motion_rev_day": 14.31354296
    },
    {
      "epoch": "2026-04-30T10:40:49.090368Z",
      "apogee_km": 793.070458555494,
      "perigee_km": 781.3433700915557,
      "latitude_deg": 3.662786818762494e-05,
      "longitude_deg": 169.18649092634732,
      "height_km": 794.7763646799691,
      "semi_major_axis_km": 7165.343914323525,
      "eccentricity": 0.00081832,
      "inclination_deg": 98.6848,
      "raan_deg": 187.7827,
      "arg_perigee_deg": 217.8155,
      "mean_anomaly_deg": 142.2454,
      "mean_motion_rev_day": 14.31354481
    },
    {
      "epoch": "2026-05-02T09:39:20.257056Z",
      "apogee_km": 793.1472820352592,
      "perigee_km": 781.2614138073277,
      "latitude_deg": -8.951242680904919e-06,
      "longitude_deg": -175.41537385817435,
      "height_km": 795.196871876774,
      "semi_major_axis_km": 7165.341347921293,
      "eccentricity": 0.0008294,
      "inclination_deg": 98.6844,
      "raan_deg": 189.7399,
      "arg_perigee_deg": 211.7124,
      "mean_anomaly_deg": 148.356,
      "mean_motion_rev_day": 14.3135525
    }
  ]
}